[{"OBJECT_NAME":"SAUDISAT 5A","OBJECT_ID":"2018-102A","EPOCH":"2026-03-09T23:40:00.596928","MEAN_MOTION":15.26941021,"ECCENTRICITY":0.00113651,"INCLINATION":97.3185,"RA_OF_ASC_NODE":132.4981,"ARG_OF_PERICENTER":121.7113,"MEAN_ANOMALY":238.5235,"EPHEMERIS_TYPE":0,"CLASSIFICATION_TYPE":"U","NORAD_CAT_ID":43831,"ELEMENT_SET_NO":999,"REV_AT_EPOCH":40053,"BSTAR":0.00030305233,"MEAN_MOTION_DOT":7.96e-5,"MEAN_MOTION_DDOT":0},{"OBJECT_NAME":"STARLINK-36510","OBJECT_ID":"2026-005D","EPOCH":"2026-03-09T11:29:15.494784","MEAN_MOTION":15.2760452,"ECCENTRICITY":0.00012321,"INCLINATION":43.0006,"RA_OF_ASC_NODE":239.224,"ARG_OF_PERICENTER":255.5702,"MEAN_ANOMALY":104.5013,"EPHEMERIS_TYPE":0,"CLASSIFICATION_TYPE":"U","NORAD_CAT_ID":67407,"ELEMENT_SET_NO":999,"REV_AT_EPOCH":866,"BSTAR":0.0011886856,"MEAN_MOTION_DOT":0.00032617,"MEAN_MOTION_DDOT":0}]
